#dP2018  4 19  0  0  0.00000000      96 __u+U IGS08 FIT  IAC
## 1997 345600.00000000   900.00000000 58227 0.0000000000000
+   86   C01C02C03C04C05C06C07C08C09C10C11C12C13C14E01E02E03
+        E04E05E07E08E09E11E12E14E18E19E24E26E30G01G02G03G05
+        G06G07G08G09G10G11G12G13G14G15G16G18G19G20G21G22G23
+        G24G25G26G27G28G29G30G31G32J01J02J03R01R02R03R04R05
+        R07R08R09R10R11R13R14R15R16R17R18R19R20R21R22R23R24
+        R26  0  0  0  0  0  0  0  0  0  0  0  0  0  0  0  0
++        12 12 12 12 12  9  8  8  8  8  7  8  8  7  7  7  7
++         7  7  7  7  7  7  7  7  7  7  7  7  7  3  3  3  3
++         3  3  3  3  3  3  3  3  3  3  3  3  3  3  3  3  3
++         3  3  3  3  3  3  3  3  3  9 10 12  5  5  5  5  0
++         5  5  5  5  5  5  5  5  5  5  5  5  5  5  5  5  5
++         8  0  0  0  0  0  0  0  0  0  0  0  0  0  0  0  0
%c M  cc GPS ccc cccc cccc cccc cccc ccccc ccccc ccccc ccccc
%c cc cc ccc ccc cccc cccc cccc cccc ccccc ccccc ccccc ccccc
%f  1.2500000  1.025000000  0.00000000000  0.000000000000000
%f  0.0000000  0.000000000  0.00000000000  0.000000000000000
%i    0    0    0    0      0      0      0      0         0
%i    0    0    0    0      0      0      0      0         0
/* INFORMATION & ANALYSIS CENTER (IAC)            FINAL DATA
/* S/V CLOCKS ARE ALIGNED TO GPS & GLONASS TIME RESPECTIVELY
/* USING THE BROADCAST EPHEMERIS                            
/* PCV:IGS14_1992 OL/AL:FES2004  NONE     YN ORB:CoN CLK:CoN
*  2018 04 19  3 30  0.00000000
PC01 -32265.360551  27138.276896    727.701492    629.599533
PC02   4364.012135  41915.808948  -1248.405702    595.488892
PC03 -14804.534118  39431.829366    -46.336441   -413.309861
PC04 -39627.235071  14423.438900    125.230271   -222.923937
PC05  21918.008246  35966.460381  -1551.396489     50.339072
PC06 -17395.428552  37999.202615  -3738.959830    842.525458
PC07  -7497.375472  27421.798731  31357.350738    183.377135
PC08 -24185.091645  21336.845832 -27206.658571    293.672344
PC09  -7324.669309  39482.596614  12452.504390   -207.326657
PC10   5455.423172  33905.763386  24796.287044   -168.376753
PC11  -7851.086353 -13359.455059  23262.865614   -473.800714
PC12  11441.132307 -20661.285279  14854.924074    418.803201
PC13  -7795.416693  24462.164100 -33467.252228   -294.911541
PC14  -9088.167902 -24908.281193  -8730.527297    412.766813
PE01   5988.808656  22412.142529  18380.376571   -324.999800
PE02  -6004.830960 -22423.103935 -18376.853593     11.038753
PE03   3388.091468 -28907.046530  -5363.275459    -22.610182
PE04  10185.590731  18870.943131  20410.000476    -17.275464
PE05  15015.044262 -22032.219809  12867.424030    281.778548
PE07 -17819.983301   2287.983359 -23512.688258     47.780694
PE08 -10228.269106 -18764.508784 -20468.953131   6601.551912
PE09  17661.720492  -2416.031111  23640.148583   6816.032624
PE11  28549.710635  -3500.259605  -7047.147296   1834.099300
PE12  17221.506283  10204.148361 -21805.873104   3969.374826
PE14  16345.292682 -22117.408121   3417.659625   6596.773397
PE18  -3694.157962  24210.571179 -16877.364121   6271.549599
PE19  -4588.739650  29013.081325   3625.194617     21.481766
PE24  23273.911278   7267.808227 -16787.350931   6751.597118
PE26 -23136.823330  14656.671036 -11215.427402   6033.959400
PE30 -20724.532357 -21113.965054  -1080.350311   5908.986765
PG01  17192.752284  13436.734447 -15490.905022    -41.700609
PG02   6770.719057 -14809.833047  21507.105838    140.419817
PG03  13054.775835  22437.913408   5746.545115     53.543727
PG05    142.543357 -23242.493720  12560.188698     -9.597618
PG06  20241.541423  -7677.244136  15439.183507    408.144922
PG07  26117.423588   5812.132155   1898.938336    205.266536
PG08    834.397386  19222.600305 -18190.032967    -98.337137
PG09  17222.176665   1192.857558  20155.252190    511.611825
PG10 -14266.700456   5244.413657 -21739.107330    179.875083
PG11  12960.357485  12673.790063 -19931.916552   -737.319849
PG12 -10144.676899 -24403.835252   3376.454096    338.754573
PG13   9293.889248 -21433.824621 -12753.836438    -95.034317
PG14 -18089.001906  19314.005839    -32.647788    -96.268891
PG15  -3412.943063 -19171.006861 -18107.939423   -355.302623
PG16  -2041.678923  22839.370843  12869.958043     27.290713
PG18   8559.209920  15552.142645 -20263.764154     -1.388065
PG19  19670.552883 -17873.285553  -2441.917317   -442.648346
PG20 -17864.453337 -16430.107239 -11031.270421    506.133051
PG21 -26410.133650  -2579.886933   -200.133194   -405.674805
PG22   9310.193961  24727.986367  -2436.393548   -362.784922
PG23   8834.812521  13658.282990  21212.446579   -217.850693
PG24 -14175.581331 -14379.593557 -17513.340038    -48.723010
PG25 -16403.072536 -14922.624063  14615.317326   -571.849236
PG26  -8524.195218  15688.592850  19610.861425   -177.817344
PG27 -10823.390163  22657.274752  -8312.376102    370.163508
PG28  14622.443983   -807.435901 -21535.095177    707.603723
PG29 -14760.255551  -4980.295066  21491.667548    463.955611
PG30  25535.888752   -341.308936  -7588.979151     83.220532
PG31 -19533.410946   8004.223197  16406.014730    127.504424
PG32 -20065.421394  14204.887934  -9912.274128   -519.218549
PJ01 -19114.860447  26559.425290 -21944.421671   -298.525895
PJ02 -27446.961951  20278.630657  29431.810659      1.025555
PJ03 -32744.488274  25700.814324  11807.243262    -16.097897
PR01   6689.217654 -22003.708372  11023.697492     25.017321
PR02  -2243.479970 -23933.713753  -8563.535027    305.544224
PR03  -9305.814961 -10783.877664 -21128.136628    129.846344
PR04 -10801.455195   9160.987624 -21191.300123    257.714458
PR05      0.000000      0.000000      0.000000 999999.999999
PR07   9453.952109  10265.078488  21381.523054    -35.492457
PR08  10917.207194  -8457.625094  21501.525965    -13.795603
PR09  12755.442158  17158.282661  13971.755396     33.560611
PR10  21520.430177  13483.307549  -2834.295313     22.787156
PR11  17700.684549   1659.457606 -18302.812548    -26.784079
PR13 -13359.598211 -16783.867335 -13822.724868     -9.572836
PR14 -21506.904946 -13467.077022   2554.149790     26.464485
PR15 -19499.568597  -4736.064707  15812.613546     -8.958008
PR16  -4109.139807  10385.631385  22898.444029     90.562134
PR17 -16722.673871  -1893.694760  19189.509326    125.835712
PR18 -23448.208689   8508.544054   5173.264341    192.425451
PR19 -17545.101890  13949.725600 -12164.369562    -50.385539
PR20     39.772909  11302.759139 -22851.362366   -334.885552
PR21  16885.220030   1632.836850 -19040.117655     20.193044
PR22  23539.345388  -9504.058578  -3150.493117    -36.070633
PR23  14526.286148 -14479.393304  15169.084325    148.581290
PR24  -1038.052891 -11035.605405  22954.304997   -165.198423
PR26   -355.208186  11585.372679 -22710.787952     13.683335
EOF
